#cP2022  3 24  6  0  0.00000000     576 d+D   IGb14 EXT AIUB
## 2202 367200.00000000   300.00000000 59662 0.2500000000000
+   76   G01G02G03G04G05G06G07G08G09G10G11G12G13G14G15G16G17
+        G18G19G21G22G23G24G25G26G27G28G29G30G31G32R01R02R03
+        R04R05R07R08R09R12R13R14R15R17R18R19R20R21R22R24E01
+        E02E03E04E05E07E08E09E10E11E12E13E14E15E18E19E21E24
+        E25E26E27E30E31E33E34E36  0  0  0  0  0  0  0  0  0
++         7  7  7  8  7  6  6  7  6  6  9  7  7  7  7  7  8
++         8  7  8  8  7  7  6  7  6  7  7  6  7  7  8  7  7
++         7  7  7  7  7  7  7  7  7  8  7  8  9  8  8  8  6
++         7  6  6  7  7  7  7  7  7  7  6  8  8  7  7  7  7
++         7  7  8  6  7  6  7  7  0  0  0  0  0  0  0  0  0
%c M  cc GPS ccc cccc cccc cccc cccc ccccc ccccc ccccc ccccc
%c cc cc ccc ccc cccc cccc cccc cccc ccccc ccccc ccccc ccccc
%f  1.2500000  1.025000000  0.00000000000  0.000000000000000
%f  0.0000000  0.000000000  0.00000000000  0.000000000000000
%i    0    0    0    0      0      0      0      0         0
%i    0    0    0    0      0      0      0      0         0
/* Center for Orbit Determination in Europe (CODE)          
/* Ultra-rapid GRE orbits starting year-day 22083 06 hour   
/* Observed/predicted: 25/23 hours (data used up to 084G)   
/* PCV:IGS14      OL/AL:FES2014b NONE     YN ORB:CoN CLK:BRD
*  2022  3 24  8 40  0.00000000
PG01 -13782.638858   4950.109756  21848.304199    401.466456
PG02  14337.464580  17048.231998 -13700.429899   -652.587774
PG03 -22297.403400  11714.719781   8144.199017   -177.232013
PG04 -22633.933498   1485.848345 -13878.779021   -181.383880
PG05  18172.470270   1793.868778 -19500.301294    -75.786041
PG06   5410.403540  25932.743929  -1105.985994    242.002864
PG07  -6897.000563  20568.745959 -14590.775537    317.530636
PG08 -25829.361597  -5327.720152   4455.625355    -61.086066
PG09 -13962.807470  10381.135654 -20142.254015   -348.011520
PG10   6170.591399 -19972.618050  16355.287468   -356.540283
PG11  12665.065987  18110.664277 -14748.311817    -56.599012
PG12  22849.233103  -7670.425293  10743.312128   -189.629243
PG13  22900.913809  13481.289189  -2171.495878    282.128489
PG14  -7840.517258  20108.313194  15423.502165    -96.762415
PG15  26181.843818   2341.432439   4440.934524    -74.386315
PG16 -15106.167172  -7008.429288 -21062.561265   -484.181741
PG17   2533.749089  16478.727396  21096.073386    591.318604
PG18   7113.239142 -20579.526207 -15141.008078    212.552794
PG19  10551.755472  17571.670115  16736.436629    135.127002
PG21 -16619.420433  -6508.314444  20522.308868    159.742820
PG22 -13130.865842 -17693.918802  15368.548346    232.343667
PG23  15497.584627 -20369.912522   6896.752670     -9.405488
PG24  15872.253048   -721.815751  21021.126187    264.960659
PG25  19590.693080 -17697.432491   -858.156288    302.564610
PG26  -5278.086726 -15877.418238 -20653.103492    193.254841
PG27 -22542.287386 -12867.830097  -6754.875206    163.872199
PG28     89.640876  17328.896712  20708.042365    374.904659
PG29  15974.006008  -7494.026289 -19921.101495   -495.006523
PG30  -1443.028427  25270.189616  -7549.414020   -520.337324
PG31  -6826.687253 -25120.955569  -3922.695458   -170.321134
PG32  -6904.346604 -16896.503663  19496.459855    -90.961842
PR01  24661.423924   -186.350486  -6537.345320      7.350219
PR02  20255.034732  -8328.479788  13071.894868    513.431465
PR03   3710.905977 -11231.495958  22641.919717     53.693540
PR04 -14519.886257  -7635.869848  19568.493801    133.406129
PR05 -24881.126151    -43.179327   5691.000400     89.936619
PR07  -3040.623369  11170.646867 -22690.726471     32.997428
PR08  14670.379320   7603.733396 -19361.868322    -64.237192
PR09 -13377.546276  19056.687105 -10322.185886     45.981309
PR12  12686.649270  -2961.711867  21946.088841     17.578714
PR13  13558.363961 -18318.131949  11434.009626    -19.882629
PR14   6380.279653 -23686.213047  -7013.436690     75.727746
PR15  -4267.667169 -14755.149488 -20350.695118     97.327675
PR17  -5222.318287 -19300.404158 -15812.721582    512.013883
PR18 -14878.139095 -20758.909576   -115.492906    111.323304
PR19 -16515.176840 -12603.911155  14803.477811   -182.734353
PR20  -8363.919964   6073.901624  23326.537707    -67.294846
PR21   6230.846281  19895.585110  14709.935021   -287.768526
PR22  15022.348762  20531.557213   -798.053235   -172.489437
PR24   8111.080191  -7207.798011 -23068.547375     85.827152
PE01   4498.113153 -23040.631261 -18026.953831   -602.812356
PE02  -4381.381096  23001.409292  18114.234020    288.281458
PE03   6180.964926  17812.851856 -22818.587099   -540.635271
PE04 -24317.387467 -13024.649230  10744.620996   -991.288037
PE05 -15968.599159  12220.231304 -21715.991459   -197.450925
PE07  28499.099678    387.608779   8012.998554   -651.469117
PE08  24617.625611  12688.619773 -10456.081653   -500.421903
PE09 -28425.636319   -192.567855  -8224.833159   -459.988282
PE10 -17828.814783 -11967.904782  20369.855103   -502.372622
PE11 -16805.699070   -456.760172  24358.260129   4149.131348
PE12 -15992.842182 -21061.839606  13323.394544   4697.997856
PE13  16888.944582   1181.389272 -24273.477342    427.520274
PE14  17163.592777  17600.087480  11455.586720  -1789.221735
PE15  15954.993531  21128.334483 -13217.351459    755.913552
PE18  -5370.441395 -20989.758385 -20506.248778  -1647.419531
PE19  -3380.573283 -17570.410132  23589.970023  -1837.472537
PE21  18769.058938 -22781.868064  -2155.176169   -724.346735
PE24 -23027.520409   8138.217548 -16761.800875   -522.459498
PE25 -18925.727496  22688.436944   1892.198217   -567.901636
PE26   7456.675048 -20152.960594 -20354.824178   -948.601085
PE27  23147.761759  -9382.537847  15871.448219   -260.237299
PE30  13054.845917  10442.568272  24413.180568   -373.819899
PE31 -13877.039438  -9403.514602 -24394.764911   -493.993081
PE33  -5626.812577 -28529.762035  -5567.499297   -458.280823
PE34   5809.484628  28522.325518   5371.013430   -508.405389
PE36  -7911.286031  19296.705066  21002.884899   -349.705752
EOF
